[{"OBJECT_NAME":"STARLINK-30776","OBJECT_ID":"2023-162U","EPOCH":"2026-01-06T23:43:01.941888","MEAN_MOTION":15.02535926,"ECCENTRICITY":0.00014637,"INCLINATION":43.0014,"RA_OF_ASC_NODE":108.7384,"ARG_OF_PERICENTER":274.5481,"MEAN_ANOMALY":85.5195,"EPHEMERIS_TYPE":0,"CLASSIFICATION_TYPE":"U","NORAD_CAT_ID":58136,"ELEMENT_SET_NO":999,"REV_AT_EPOCH":12301,"BSTAR":0.00020091407,"MEAN_MOTION_DOT":2.511e-5,"MEAN_MOTION_DDOT":0},{"OBJECT_NAME":"STARLINK-30782","OBJECT_ID":"2023-162V","EPOCH":"2026-01-07T06:09:08.959680","MEAN_MOTION":15.02533922,"ECCENTRICITY":0.000127,"INCLINATION":43.0029,"RA_OF_ASC_NODE":107.3334,"ARG_OF_PERICENTER":263.8131,"MEAN_ANOMALY":96.2566,"EPHEMERIS_TYPE":0,"CLASSIFICATION_TYPE":"U","NORAD_CAT_ID":58137,"ELEMENT_SET_NO":999,"REV_AT_EPOCH":12305,"BSTAR":-2.817e-5,"MEAN_MOTION_DOT":-5.84e-6,"MEAN_MOTION_DDOT":0},{"OBJECT_NAME":"STARLINK-30769","OBJECT_ID":"2023-162W","EPOCH":"2026-01-07T07:35:17.279808","MEAN_MOTION":15.02527656,"ECCENTRICITY":0.0001255,"INCLINATION":43.0031,"RA_OF_ASC_NODE":106.9227,"ARG_OF_PERICENTER":257.4023,"MEAN_ANOMALY":102.6679,"EPHEMERIS_TYPE":0,"CLASSIFICATION_TYPE":"U","NORAD_CAT_ID":58138,"ELEMENT_SET_NO":999,"REV_AT_EPOCH":12306,"BSTAR":0.00011428,"MEAN_MOTION_DOT":1.34e-5,"MEAN_MOTION_DDOT":0},{"OBJECT_NAME":"STARLINK-30775","OBJECT_ID":"2023-162X","EPOCH":"2026-01-07T06:04:20.513280","MEAN_MOTION":15.02537226,"ECCENTRICITY":0.0001636,"INCLINATION":43.0019,"RA_OF_ASC_NODE":107.308,"ARG_OF_PERICENTER":278.4465,"MEAN_ANOMALY":81.6191,"EPHEMERIS_TYPE":0,"CLASSIFICATION_TYPE":"U","NORAD_CAT_ID":58139,"ELEMENT_SET_NO":999,"REV_AT_EPOCH":12305,"BSTAR":2.7727e-6,"MEAN_MOTION_DOT":-1.66e-6,"MEAN_MOTION_DDOT":0},{"OBJECT_NAME":"STARLINK-30780","OBJECT_ID":"2023-162Y","EPOCH":"2026-01-07T13:53:23.858304","MEAN_MOTION":15.02538025,"ECCENTRICITY":0.0001583,"INCLINATION":43.0036,"RA_OF_ASC_NODE":105.4515,"ARG_OF_PERICENTER":281.3058,"MEAN_ANOMALY":78.7606,"EPHEMERIS_TYPE":0,"CLASSIFICATION_TYPE":"U","NORAD_CAT_ID":58140,"ELEMENT_SET_NO":999,"REV_AT_EPOCH":12310,"BSTAR":3.2581e-5,"MEAN_MOTION_DOT":2.36e-6,"MEAN_MOTION_DDOT":0},{"OBJECT_NAME":"STARLINK-30802","OBJECT_ID":"2023-166A","EPOCH":"2026-01-07T16:15:58.813920","MEAN_MOTION":15.3019854,"ECCENTRICITY":8.82e-5,"INCLINATION":53.1594,"RA_OF_ASC_NODE":143.3098,"ARG_OF_PERICENTER":83.3116,"MEAN_ANOMALY":276.7985,"EPHEMERIS_TYPE":0,"CLASSIFICATION_TYPE":"U","NORAD_CAT_ID":58150,"ELEMENT_SET_NO":999,"REV_AT_EPOCH":12383,"BSTAR":-1.697e-5,"MEAN_MOTION_DOT":-8.61e-6,"MEAN_MOTION_DDOT":0},{"OBJECT_NAME":"STARLINK-30834","OBJECT_ID":"2023-166B","EPOCH":"2026-01-07T14:47:57.680448","MEAN_MOTION":15.30200471,"ECCENTRICITY":0.0001048,"INCLINATION":53.1593,"RA_OF_ASC_NODE":143.4353,"ARG_OF_PERICENTER":86.5914,"MEAN_ANOMALY":273.5207,"EPHEMERIS_TYPE":0,"CLASSIFICATION_TYPE":"U","NORAD_CAT_ID":58151,"ELEMENT_SET_NO":999,"REV_AT_EPOCH":12382,"BSTAR":0.00058536,"MEAN_MOTION_DOT":0.00017017,"MEAN_MOTION_DDOT":0},{"OBJECT_NAME":"STARLINK-30833","OBJECT_ID":"2023-166C","EPOCH":"2026-01-07T14:38:53.438208","MEAN_MOTION":15.30193403,"ECCENTRICITY":0.0001016,"INCLINATION":53.1589,"RA_OF_ASC_NODE":143.598,"ARG_OF_PERICENTER":88.0818,"MEAN_ANOMALY":272.0299,"EPHEMERIS_TYPE":0,"CLASSIFICATION_TYPE":"U","NORAD_CAT_ID":58152,"ELEMENT_SET_NO":999,"REV_AT_EPOCH":12382,"BSTAR":-8.8844e-6,"MEAN_MOTION_DOT":-6.22e-6,"MEAN_MOTION_DDOT":0},{"OBJECT_NAME":"STARLINK-30831","OBJECT_ID":"2023-166D","EPOCH":"2026-01-07T15:48:38.205792","MEAN_MOTION":15.30194014,"ECCENTRICITY":0.0001136,"INCLINATION":53.1603,"RA_OF_ASC_NODE":143.2074,"ARG_OF_PERICENTER":77.574,"MEAN_ANOMALY":282.5387,"EPHEMERIS_TYPE":0,"CLASSIFICATION_TYPE":"U","NORAD_CAT_ID":58153,"ELEMENT_SET_NO":999,"REV_AT_EPOCH":12383,"BSTAR":-2.0185e-5,"MEAN_MOTION_DOT":-9.57e-6,"MEAN_MOTION_DDOT":0},{"OBJECT_NAME":"STARLINK-30797","OBJECT_ID":"2023-166E","EPOCH":"2026-01-07T16:26:34.047456","MEAN_MOTION":15.30200276,"ECCENTRICITY":9.9e-5,"INCLINATION":53.1595,"RA_OF_ASC_NODE":143.1445,"ARG_OF_PERICENTER":70.6639,"MEAN_ANOMALY":289.4469,"EPHEMERIS_TYPE":0,"CLASSIFICATION_TYPE":"U","NORAD_CAT_ID":58154,"ELEMENT_SET_NO":999,"REV_AT_EPOCH":12368,"BSTAR":3.3355e-5,"MEAN_MOTION_DOT":6.29e-6,"MEAN_MOTION_DDOT":0},{"OBJECT_NAME":"STARLINK-30804","OBJECT_ID":"2023-166F","EPOCH":"2026-01-07T19:11:56.069664","MEAN_MOTION":15.30196207,"ECCENTRICITY":0.0001076,"INCLINATION":53.1593,"RA_OF_ASC_NODE":142.6617,"ARG_OF_PERICENTER":97.7983,"MEAN_ANOMALY":262.314,"EPHEMERIS_TYPE":0,"CLASSIFICATION_TYPE":"U","NORAD_CAT_ID":58155,"ELEMENT_SET_NO":999,"REV_AT_EPOCH":12385,"BSTAR":1.0568e-5,"MEAN_MOTION_DOT":-4.6e-7,"MEAN_MOTION_DDOT":0},{"OBJECT_NAME":"STARLINK-30784","OBJECT_ID":"2023-166G","EPOCH":"2026-01-07T16:17:30.104160","MEAN_MOTION":15.30197416,"ECCENTRICITY":8.14e-5,"INCLINATION":53.1591,"RA_OF_ASC_NODE":143.3188,"ARG_OF_PERICENTER":98.0694,"MEAN_ANOMALY":262.0399,"EPHEMERIS_TYPE":0,"CLASSIFICATION_TYPE":"U","NORAD_CAT_ID":58156,"ELEMENT_SET_NO":999,"REV_AT_EPOCH":12368,"BSTAR":-4.9789e-6,"MEAN_MOTION_DOT":-5.06e-6,"MEAN_MOTION_DDOT":0},{"OBJECT_NAME":"STARLINK-30803","OBJECT_ID":"2023-166H","EPOCH":"2026-01-07T15:44:04.832736","MEAN_MOTION":15.30179996,"ECCENTRICITY":0.0001176,"INCLINATION":53.1598,"RA_OF_ASC_NODE":143.1712,"ARG_OF_PERICENTER":93.1875,"MEAN_ANOMALY":266.926,"EPHEMERIS_TYPE":0,"CLASSIFICATION_TYPE":"U","NORAD_CAT_ID":58157,"ELEMENT_SET_NO":999,"REV_AT_EPOCH":12368,"BSTAR":-4.7759e-5,"MEAN_MOTION_DOT":-1.772e-5,"MEAN_MOTION_DDOT":0},{"OBJECT_NAME":"STARLINK-30829","OBJECT_ID":"2023-166J","EPOCH":"2026-01-07T16:08:23.574048","MEAN_MOTION":15.30190871,"ECCENTRICITY":9.46e-5,"INCLINATION":53.1579,"RA_OF_ASC_NODE":143.2875,"ARG_OF_PERICENTER":79.536,"MEAN_ANOMALY":280.5748,"EPHEMERIS_TYPE":0,"CLASSIFICATION_TYPE":"U","NORAD_CAT_ID":58158,"ELEMENT_SET_NO":999,"REV_AT_EPOCH":12383,"BSTAR":-1.2402e-5,"MEAN_MOTION_DOT":-7.26e-6,"MEAN_MOTION_DDOT":0},{"OBJECT_NAME":"STARLINK-30788","OBJECT_ID":"2023-166K","EPOCH":"2026-01-07T15:59:16.344096","MEAN_MOTION":15.30192861,"ECCENTRICITY":8.28e-5,"INCLINATION":53.1577,"RA_OF_ASC_NODE":143.2489,"ARG_OF_PERICENTER":59.8286,"MEAN_ANOMALY":300.2797,"EPHEMERIS_TYPE":0,"CLASSIFICATION_TYPE":"U","NORAD_CAT_ID":58159,"ELEMENT_SET_NO":999,"REV_AT_EPOCH":12368,"BSTAR":2.3204e-5,"MEAN_MOTION_DOT":3.28e-6,"MEAN_MOTION_DDOT":0},{"OBJECT_NAME":"STARLINK-30779","OBJECT_ID":"2023-166L","EPOCH":"2026-01-07T15:53:11.690304","MEAN_MOTION":15.30195308,"ECCENTRICITY":0.0001046,"INCLINATION":53.1588,"RA_OF_ASC_NODE":143.2241,"ARG_OF_PERICENTER":78.862,"MEAN_ANOMALY":281.2498,"EPHEMERIS_TYPE":0,"CLASSIFICATION_TYPE":"U","NORAD_CAT_ID":58160,"ELEMENT_SET_NO":999,"REV_AT_EPOCH":12383,"BSTAR":-2.6058e-6,"MEAN_MOTION_DOT":-4.36e-6,"MEAN_MOTION_DDOT":0},{"OBJECT_NAME":"STARLINK-30773","OBJECT_ID":"2023-166M","EPOCH":"2026-01-07T15:30:23.447808","MEAN_MOTION":15.3017903,"ECCENTRICITY":0.0001106,"INCLINATION":53.1598,"RA_OF_ASC_NODE":143.109,"ARG_OF_PERICENTER":80.9012,"MEAN_ANOMALY":279.2114,"EPHEMERIS_TYPE":0,"CLASSIFICATION_TYPE":"U","NORAD_CAT_ID":58161,"ELEMENT_SET_NO":999,"REV_AT_EPOCH":12383,"BSTAR":-0.00012239,"MEAN_MOTION_DOT":-3.979e-5,"MEAN_MOTION_DDOT":0},{"OBJECT_NAME":"STARLINK-30816","OBJECT_ID":"2023-166N","EPOCH":"2026-01-07T15:25:50.124864","MEAN_MOTION":15.30200156,"ECCENTRICITY":0.0001166,"INCLINATION":53.1596,"RA_OF_ASC_NODE":143.1085,"ARG_OF_PERICENTER":74.9199,"MEAN_ANOMALY":285.1931,"EPHEMERIS_TYPE":0,"CLASSIFICATION_TYPE":"U","NORAD_CAT_ID":58162,"ELEMENT_SET_NO":999,"REV_AT_EPOCH":12383,"BSTAR":0.00016126,"MEAN_MOTION_DOT":4.42e-5,"MEAN_MOTION_DDOT":0},{"OBJECT_NAME":"STARLINK-30763","OBJECT_ID":"2023-166P","EPOCH":"2026-01-07T15:35:43.235808","MEAN_MOTION":15.30198583,"ECCENTRICITY":0.0001014,"INCLINATION":53.16,"RA_OF_ASC_NODE":130.5684,"ARG_OF_PERICENTER":82.8676,"MEAN_ANOMALY":277.244,"EPHEMERIS_TYPE":0,"CLASSIFICATION_TYPE":"U","NORAD_CAT_ID":58163,"ELEMENT_SET_NO":999,"REV_AT_EPOCH":12400,"BSTAR":-7.4557e-5,"MEAN_MOTION_DOT":-2.566e-5,"MEAN_MOTION_DDOT":0},{"OBJECT_NAME":"STARLINK-30815","OBJECT_ID":"2023-166Q","EPOCH":"2026-01-07T15:39:31.512384","MEAN_MOTION":15.30188883,"ECCENTRICITY":8.07e-5,"INCLINATION":53.1598,"RA_OF_ASC_NODE":143.1691,"ARG_OF_PERICENTER":62.1156,"MEAN_ANOMALY":297.9927,"EPHEMERIS_TYPE":0,"CLASSIFICATION_TYPE":"U","NORAD_CAT_ID":58164,"ELEMENT_SET_NO":999,"REV_AT_EPOCH":12383,"BSTAR":6.4525e-5,"MEAN_MOTION_DOT":1.552e-5,"MEAN_MOTION_DDOT":0},{"OBJECT_NAME":"STARLINK-30814","OBJECT_ID":"2023-166R","EPOCH":"2026-01-07T14:56:58.083936","MEAN_MOTION":15.30191008,"ECCENTRICITY":0.000105,"INCLINATION":53.1594,"RA_OF_ASC_NODE":142.9864,"ARG_OF_PERICENTER":76.9353,"MEAN_ANOMALY":283.1765,"EPHEMERIS_TYPE":0,"CLASSIFICATION_TYPE":"U","NORAD_CAT_ID":58165,"ELEMENT_SET_NO":999,"REV_AT_EPOCH":12383,"BSTAR":-3.0456e-6,"MEAN_MOTION_DOT":-4.49e-6,"MEAN_MOTION_DDOT":0},{"OBJECT_NAME":"STARLINK-30789","OBJECT_ID":"2023-166S","EPOCH":"2026-01-07T15:34:57.723744","MEAN_MOTION":15.3019642,"ECCENTRICITY":0.000103,"INCLINATION":53.1603,"RA_OF_ASC_NODE":143.1493,"ARG_OF_PERICENTER":76.5483,"MEAN_ANOMALY":283.5633,"EPHEMERIS_TYPE":0,"CLASSIFICATION_TYPE":"U","NORAD_CAT_ID":58166,"ELEMENT_SET_NO":999,"REV_AT_EPOCH":12383,"BSTAR":-2.6955e-5,"MEAN_MOTION_DOT":-1.157e-5,"MEAN_MOTION_DDOT":0},{"OBJECT_NAME":"STARLINK-30811","OBJECT_ID":"2023-166T","EPOCH":"2026-01-07T16:40:08.119488","MEAN_MOTION":15.30197272,"ECCENTRICITY":0.0001258,"INCLINATION":53.1621,"RA_OF_ASC_NODE":142.7201,"ARG_OF_PERICENTER":94.1875,"MEAN_ANOMALY":265.9269,"EPHEMERIS_TYPE":0,"CLASSIFICATION_TYPE":"U","NORAD_CAT_ID":58167,"ELEMENT_SET_NO":999,"REV_AT_EPOCH":12369,"BSTAR":7.2314e-6,"MEAN_MOTION_DOT":-1.45e-6,"MEAN_MOTION_DDOT":0}]
